{"type": "FeatureCollection", "features": [ {"type": "Feature", "properties": {"norad_id": 41774, "name": "SKYSAT-C3", "group": "resource", "lat": -16.938645384741363, "lon": -163.85359603654462, "alt_km": 438.6386427204279, "timestamp": "2025-12-10T09:57:44.361781+00:00", "meta": {"OBJECT_NAME": "SKYSAT-C3", "OBJECT_ID": "2016-058E", "EPOCH": "2025-12-10T01:20:10.885056", "MEAN_MOTION": 15.44244525, "ECCENTRICITY": 0.0001599, "INCLINATION": 96.93, "RA_OF_ASC_NODE": 17.9267, "ARG_OF_PERICENTER": 105.6106, "MEAN_ANOMALY": 254.532, "EPHEMERIS_TYPE": 0, "CLASSIFICATION_TYPE": "U", "NORAD_CAT_ID": 41774, "ELEMENT_SET_NO": 999, "REV_AT_EPOCH": 51684, "BSTAR": 0.00053807, "MEAN_MOTION_DOT": 0.0002469, "MEAN_MOTION_DDOT": 0}, "tle": {"line1": "1 41774U 16058E   25344.05568154  .00024690  00000+0  53807-3 0  9991", "line2": "2 41774  96.9300  17.9267 0001599 105.6106 254.5320 15.44244525516848"}}, "geometry": {"type": "Point", "coordinates": [-163.85359603654462, -16.938645384741363]}}, {"type": "Feature", "properties": {"norad_id": 41785, "name": "ALSAT 1B", "group": "resource", "lat": -60.092094264190294, "lon": 10.057237711126884, "alt_km": 668.9969240036826, "timestamp": "2025-12-10T09:57:44.361792+00:00", "meta": {"OBJECT_NAME": "ALSAT 1B", "OBJECT_ID": "2016-059C", "EPOCH": "2025-12-10T03:42:51.120576", "MEAN_MOTION": 14.72071692, "ECCENTRICITY": 0.0010639, "INCLINATION": 97.7813, "RA_OF_ASC_NODE": 356.0558, "ARG_OF_PERICENTER": 110.4811, "MEAN_ANOMALY": 249.754, "EPHEMERIS_TYPE": 0, "CLASSIFICATION_TYPE": "U", "NORAD_CAT_ID": 41785, "ELEMENT_SET_NO": 999, "REV_AT_EPOCH": 49276, "BSTAR": 0.00014105, "MEAN_MOTION_DOT": 8.4e-06, "MEAN_MOTION_DDOT": 0}, "tle": {"line1": "1 41785U 16059C   25344.15475834  .00000840  00000+0  14105-3 0  9996", "line2": "2 41785  97.7813 356.0558 0010639 110.4811 249.7540 14.72071692492767"}}, "geometry": {"type": "Point", "coordinates": [10.057237711126884, -60.092094264190294]}}, {"type": "Feature", "properties": {"norad_id": 41787, "name": "PATHFINDER 1", "group": "resource", "lat": 56.32087745367046, "lon": -24.595405499352662, "alt_km": 646.0761524177151, "timestamp": "2025-12-10T09:57:44.361802+00:00", "meta": {"OBJECT_NAME": "PATHFINDER 1", "OBJECT_ID": "2016-059E", "EPOCH": "2025-12-09T12:25:38.745120", "MEAN_MOTION": 14.67312716, "ECCENTRICITY": 0.0030058, "INCLINATION": 97.8139, "RA_OF_ASC_NODE": 346.4409, "ARG_OF_PERICENTER": 90.9607, "MEAN_ANOMALY": 269.5043, "EPHEMERIS_TYPE": 0, "CLASSIFICATION_TYPE": "U", "NORAD_CAT_ID": 41787, "ELEMENT_SET_NO": 999, "REV_AT_EPOCH": 49189, "BSTAR": 0.00025681, "MEAN_MOTION_DOT": 1.412e-05, "MEAN_MOTION_DDOT": 0}, "tle": {"line1": "1 41787U 16059E   25343.51780955  .00001412  00000+0  25681-3 0  9997", "line2": "2 41787  97.8139 346.4409 0030058  90.9607 269.5043 14.67312716491891"}}, "geometry": {"type": "Point", "coordinates": [-24.595405499352662, 56.32087745367046]}}, {"type": "Feature", "properties": {"norad_id": 41790, "name": "SCATSAT 1", "group": "resource", "lat": -46.59640530121906, "lon": 49.76758003989067, "alt_km": 678.8542537917056, "timestamp": "2025-12-10T09:57:44.361813+00:00", "meta": {"OBJECT_NAME": "SCATSAT 1", "OBJECT_ID": "2016-059H", "EPOCH": "2025-12-10T03:40:56.846208", "MEAN_MOTION": 14.78922317, "ECCENTRICITY": 0.0056147, "INCLINATION": 98.1464, "RA_OF_ASC_NODE": 40.7913, "ARG_OF_PERICENTER": 136.1603, "MEAN_ANOMALY": 224.4085, "EPHEMERIS_TYPE": 0, "CLASSIFICATION_TYPE": "U", "NORAD_CAT_ID": 41790, "ELEMENT_SET_NO": 999, "REV_AT_EPOCH": 7364, "BSTAR": 0.00031976, "MEAN_MOTION_DOT": 2.364e-05, "MEAN_MOTION_DDOT": 0}, "tle": {"line1": "1 41790U 16059H   25344.15343572  .00002364  00000+0  31976-3 0  9993", "line2": "2 41790  98.1464  40.7913 0056147 136.1603 224.4085 14.78922317 73641"}}, "geometry": {"type": "Point", "coordinates": [49.76758003989067, -46.59640530121906]}}, {"type": "Feature", "properties": {"norad_id": 41875, "name": "GOKTURK 1A", "group": "resource", "lat": 7.358534024072308, "lon": 57.87044427392004, "alt_km": 686.2971875922285, "timestamp": "2025-12-10T09:57:44.361823+00:00", "meta": {"OBJECT_NAME": "GOKTURK 1A", "OBJECT_ID": "2016-073A", "EPOCH": "2025-12-10T04:15:05.429088", "MEAN_MOTION": 14.6277554, "ECCENTRICITY": 0.0001259, "INCLINATION": 98.1426, "RA_OF_ASC_NODE": 236.5763, "ARG_OF_PERICENTER": 77.3041, "MEAN_ANOMALY": 282.8302, "EPHEMERIS_TYPE": 0, "CLASSIFICATION_TYPE": "U", "NORAD_CAT_ID": 41875, "ELEMENT_SET_NO": 999, "REV_AT_EPOCH": 48119, "BSTAR": 0.00020307, "MEAN_MOTION_DOT": 9.89e-06, "MEAN_MOTION_DDOT": 0}, "tle": {"line1": "1 41875U 16073A   25344.17714617  .00000989  00000+0  20307-3 0  9994", "line2": "2 41875  98.1426 236.5763 0001259  77.3041 282.8302 14.62775540481197"}}, "geometry": {"type": "Point", "coordinates": [57.87044427392004, 7.358534024072308]}}, {"type": "Feature", "properties": {"norad_id": 41877, "name": "RESOURCESAT-2A", "group": "resource", "lat": -25.129273192326572, "lon": -129.87071982426738, "alt_km": 825.1133646988419, "timestamp": "2025-12-10T09:57:44.361833+00:00", "meta": {"OBJECT_NAME": "RESOURCESAT-2A", "OBJECT_ID": "2016-074A", "EPOCH": "2025-12-10T03:55:54.118848", "MEAN_MOTION": 14.21598271, "ECCENTRICITY": 0.0001135, "INCLINATION": 98.7755, "RA_OF_ASC_NODE": 54.0345, "ARG_OF_PERICENTER": 268.3465, "MEAN_ANOMALY": 91.7582, "EPHEMERIS_TYPE": 0, "CLASSIFICATION_TYPE": "U", "NORAD_CAT_ID": 41877, "ELEMENT_SET_NO": 999, "REV_AT_EPOCH": 46744, "BSTAR": 0.00015758, "MEAN_MOTION_DOT": 3.01e-06, "MEAN_MOTION_DDOT": 0}, "tle": {"line1": "1 41877U 16074A   25344.16382082  .00000301  00000+0  15758-3 0  9995", "line2": "2 41877  98.7755  54.0345 0001135 268.3465  91.7582 14.21598271467442"}}, "geometry": {"type": "Point", "coordinates": [-129.87071982426738, -25.129273192326572]}}, {"type": "Feature", "properties": {"norad_id": 41948, "name": "CARTOSAT-2D", "group": "resource", "lat": 63.06572823547164, "lon": -123.15129469932641, "alt_km": 500.3043323167476, "timestamp": "2025-12-10T09:57:44.361843+00:00", "meta": {"OBJECT_NAME": "CARTOSAT-2D", "OBJECT_ID": "2017-008A", "EPOCH": "2025-12-10T04:42:41.177088", "MEAN_MOTION": 15.19212406, "ECCENTRICITY": 0.0004374, "INCLINATION": 97.4386, "RA_OF_ASC_NODE": 41.7322, "ARG_OF_PERICENTER": 170.2477, "MEAN_ANOMALY": 189.8844, "EPHEMERIS_TYPE": 0, "CLASSIFICATION_TYPE": "U", "NORAD_CAT_ID": 41948, "ELEMENT_SET_NO": 999, "REV_AT_EPOCH": 48888, "BSTAR": 0.00023307, "MEAN_MOTION_DOT": 4.84e-05, "MEAN_MOTION_DDOT": 0}, "tle": {"line1": "1 41948U 17008A   25344.19630992  .00004840  00000+0  23307-3 0  9992", "line2": "2 41948  97.4386  41.7322 0004374 170.2477 189.8844 15.19212406488889"}}, "geometry": {"type": "Point", "coordinates": [-123.15129469932641, 63.06572823547164]}}, {"type": "Feature", "properties": {"norad_id": 42063, "name": "SENTINEL-2B", "group": "resource", "lat": 78.97906314323956, "lon": -72.35494915635014, "alt_km": 780.8306478388686, "timestamp": "2025-12-10T09:57:44.361853+00:00", "meta": {"OBJECT_NAME": "SENTINEL-2B", "OBJECT_ID": "2017-013A", "EPOCH": "2025-12-10T04:28:33.798720", "MEAN_MOTION": 14.30814582, "ECCENTRICITY": 0.0001136, "INCLINATION": 98.5715, "RA_OF_ASC_NODE": 56.668, "ARG_OF_PERICENTER": 94.0571, "MEAN_ANOMALY": 266.0742, "EPHEMERIS_TYPE": 0, "CLASSIFICATION_TYPE": "U", "NORAD_CAT_ID": 42063, "ELEMENT_SET_NO": 999, "REV_AT_EPOCH": 45761, "BSTAR": 0.00011871, "MEAN_MOTION_DOT": 2.67e-06, "MEAN_MOTION_DDOT": 0}, "tle": {"line1": "1 42063U 17013A   25344.18650230  .00000267  00000+0  11871-3 0  9995", "line2": "2 42063  98.5715  56.6680 0001136  94.0571 266.0742 14.30814582457616"}}, "geometry": {"type": "Point", "coordinates": [-72.35494915635014, 78.97906314323956]}}, {"type": "Feature", "properties": {"norad_id": 42767, "name": "CARTOSAT-2E", "group": "resource", "lat": 26.510850673932975, "lon": 38.286127518207074, "alt_km": 508.36444387362553, "timestamp": "2025-12-10T09:57:44.361863+00:00", "meta": {"OBJECT_NAME": "CARTOSAT-2E", "OBJECT_ID": "2017-036C", "EPOCH": "2025-12-10T03:31:19.462656", "MEAN_MOTION": 15.19277375, "ECCENTRICITY": 0.0002352, "INCLINATION": 97.4557, "RA_OF_ASC_NODE": 41.7667, "ARG_OF_PERICENTER": 248.0466, "MEAN_ANOMALY": 112.0519, "EPHEMERIS_TYPE": 0, "CLASSIFICATION_TYPE": "U", "NORAD_CAT_ID": 42767, "ELEMENT_SET_NO": 999, "REV_AT_EPOCH": 46944, "BSTAR": 0.00023108, "MEAN_MOTION_DOT": 4.806e-05, "MEAN_MOTION_DDOT": 0}, "tle": {"line1": "1 42767U 17036C   25344.14675304  .00004806  00000+0  23108-3 0  9995", "line2": "2 42767  97.4557  41.7667 0002352 248.0466 112.0519 15.19277375469441"}}, "geometry": {"type": "Point", "coordinates": [38.286127518207074, 26.510850673932975]}}, {"type": "Feature", "properties": {"norad_id": 42920, "name": "FORMOSAT-5", "group": "resource", "lat": -68.1677346091058, "lon": 80.00045258475335, "alt_km": 722.7124026995307, "timestamp": "2025-12-10T09:57:44.361873+00:00", "meta": {"OBJECT_NAME": "FORMOSAT-5", "OBJECT_ID": "2017-049A", "EPOCH": "2025-12-09T19:23:15.386208", "MEAN_MOTION": 14.51002946, "ECCENTRICITY": 0.001, "INCLINATION": 98.2455, "RA_OF_ASC_NODE": 58.185, "ARG_OF_PERICENTER": 305.5087, "MEAN_ANOMALY": 54.5174, "EPHEMERIS_TYPE": 0, "CLASSIFICATION_TYPE": "U", "NORAD_CAT_ID": 42920, "ELEMENT_SET_NO": 999, "REV_AT_EPOCH": 43921, "BSTAR": 0.00012828, "MEAN_MOTION_DOT": 4.64e-06, "MEAN_MOTION_DDOT": 0}, "tle": {"line1": "1 42920U 17049A   25343.80781697  .00000464  00000+0  12828-3 0  9998", "line2": "2 42920  98.2455  58.1850 0010000 305.5087  54.5174 14.51002946439215"}}, "geometry": {"type": "Point", "coordinates": [80.00045258475335, -68.1677346091058]}}]}